{
    "links": {
        "self": "http://www.neowsapp.com/rest/v1/neo/3755202?api_key=iIulBulltgU6a56xZRHN4H3l9WmuAYTsLGpBGhQ2"
    },
    "id": "3755202",
    "neo_reference_id": "3755202",
    "name": "(2016 NV22)",
    "designation": "2016 NV22",
    "nasa_jpl_url": "http://ssd.jpl.nasa.gov/sbdb.cgi?sstr=3755202",
    "absolute_magnitude_h": 24.9,
    "estimated_diameter": {
        "kilometers": {
            "estimated_diameter_min": 0.0278326768,
            "estimated_diameter_max": 0.0622357573
        },
        "meters": {
            "estimated_diameter_min": 27.8326768072,
            "estimated_diameter_max": 62.2357573367
        },
        "miles": {
            "estimated_diameter_min": 0.0172944182,
            "estimated_diameter_max": 0.0386714948
        },
        "feet": {
            "estimated_diameter_min": 91.3145593761,
            "estimated_diameter_max": 204.1855621004
        }
    },
    "is_potentially_hazardous_asteroid": false,
    "close_approach_data": [
        {
            "close_approach_date": "2016-05-27",
            "close_approach_date_full": "2016-May-27 14:16",
            "epoch_date_close_approach": 1464358560000,
            "relative_velocity": {
                "kilometers_per_second": "4.1744334725",
                "kilometers_per_hour": "15027.9605008393",
                "miles_per_hour": "9337.7902345354"
            },
            "miss_distance": {
                "astronomical": "0.0620454895",
                "lunar": "24.1356954155",
                "kilometers": "9281873.072307365",
                "miles": "5767488.485137037"
            },
            "orbiting_body": "Earth"
        },
        {
            "close_approach_date": "2079-03-11",
            "close_approach_date_full": "2079-Mar-11 15:24",
            "epoch_date_close_approach": 3445773840000,
            "relative_velocity": {
                "kilometers_per_second": "4.8930735984",
                "kilometers_per_hour": "17615.0649542188",
                "miles_per_hour": "10945.3163322478"
            },
            "miss_distance": {
                "astronomical": "0.0317034327",
                "lunar": "12.3326353203",
                "kilometers": "4742766.003608349",
                "miles": "2947018.1395952562"
            },
            "orbiting_body": "Earth"
        }
    ],
    "orbital_data": {
        "orbit_id": "4",
        "orbit_determination_date": "2017-04-06 08:25:03",
        "first_observation_date": "2016-07-07",
        "last_observation_date": "2016-07-29",
        "data_arc_in_days": 22,
        "observations_used": 28,
        "orbit_uncertainty": "7",
        "minimum_orbit_intersection": ".0253702",
        "jupiter_tisserand_invariant": "5.227",
        "epoch_osculation": "2459000.5",
        "eccentricity": ".2227872387893149",
        "semi_major_axis": "1.214080351007057",
        "inclination": "2.604801944720866",
        "ascending_node_longitude": "132.9583232794539",
        "orbital_period": "488.6181246473114",
        "perihelion_distance": ".9435987419378329",
        "perihelion_argument": "78.67727254195236",
        "aphelion_distance": "1.484561960076282",
        "perihelion_time": "2458969.092416245944",
        "mean_anomaly": "23.14021846737982",
        "mean_motion": ".7367716870098729",
        "equinox": "J2000",
        "orbit_class": {
            "orbit_class_type": "APO",
            "orbit_class_description": "Near-Earth asteroid orbits which cross the Earth’s orbit similar to that of 1862 Apollo",
            "orbit_class_range": "a (semi-major axis) > 1.0 AU; q (perihelion) < 1.017 AU"
        }
    },
    "is_sentry_object": false
}